[{"OBJECT_NAME":"SL-8 R/B","OBJECT_ID":"1988-053B","EPOCH":"2026-04-02T15:56:12.257664","MEAN_MOTION":14.38932407,"ECCENTRICITY":0.00214068,"INCLINATION":74.0465,"RA_OF_ASC_NODE":68.27,"ARG_OF_PERICENTER":244.3423,"MEAN_ANOMALY":288.6433,"EPHEMERIS_TYPE":0,"CLASSIFICATION_TYPE":"U","NORAD_CAT_ID":19257,"ELEMENT_SET_NO":999,"REV_AT_EPOCH":98004,"BSTAR":0.00010394045,"MEAN_MOTION_DOT":2.95e-6,"MEAN_MOTION_DDOT":0},{"OBJECT_NAME":"COSMOS 1975","OBJECT_ID":"1988-093A","EPOCH":"2026-04-02T10:15:43.467552","MEAN_MOTION":15.2840751,"ECCENTRICITY":0.00134162,"INCLINATION":82.5155,"RA_OF_ASC_NODE":93.8435,"ARG_OF_PERICENTER":88.5934,"MEAN_ANOMALY":271.6843,"EPHEMERIS_TYPE":0,"CLASSIFICATION_TYPE":"U","NORAD_CAT_ID":19573,"ELEMENT_SET_NO":999,"REV_AT_EPOCH":2303,"BSTAR":0.000347107,"MEAN_MOTION_DOT":9.657e-5,"MEAN_MOTION_DDOT":0},{"OBJECT_NAME":"SL-14 R/B","OBJECT_ID":"1988-093B","EPOCH":"2026-04-02T18:24:15.141024","MEAN_MOTION":14.85685904,"ECCENTRICITY":0.0019697,"INCLINATION":82.5344,"RA_OF_ASC_NODE":19.4462,"ARG_OF_PERICENTER":322.1685,"MEAN_ANOMALY":60.5505,"EPHEMERIS_TYPE":0,"CLASSIFICATION_TYPE":"U","NORAD_CAT_ID":19574,"ELEMENT_SET_NO":999,"REV_AT_EPOCH":459,"BSTAR":7.3382e-5,"MEAN_MOTION_DOT":6.62e-6,"MEAN_MOTION_DDOT":0},{"OBJECT_NAME":"SL-16 R/B","OBJECT_ID":"1988-102B","EPOCH":"2026-04-02T10:13:53.689440","MEAN_MOTION":14.16154222,"ECCENTRICITY":0.00153066,"INCLINATION":70.997,"RA_OF_ASC_NODE":101.5515,"ARG_OF_PERICENTER":326.7216,"MEAN_ANOMALY":33.2943,"EPHEMERIS_TYPE":0,"CLASSIFICATION_TYPE":"U","NORAD_CAT_ID":19650,"ELEMENT_SET_NO":999,"REV_AT_EPOCH":93025,"BSTAR":0.00011139854,"MEAN_MOTION_DOT":1.73e-6,"MEAN_MOTION_DDOT":0},{"OBJECT_NAME":"INTERCOSMOS 24","OBJECT_ID":"1989-080A","EPOCH":"2026-04-02T17:04:57.601056","MEAN_MOTION":12.59587766,"ECCENTRICITY":0.1186972,"INCLINATION":82.6015,"RA_OF_ASC_NODE":88.7562,"ARG_OF_PERICENTER":237.015,"MEAN_ANOMALY":111.1392,"EPHEMERIS_TYPE":0,"CLASSIFICATION_TYPE":"U","NORAD_CAT_ID":20261,"ELEMENT_SET_NO":999,"REV_AT_EPOCH":66982,"BSTAR":0.00014277,"MEAN_MOTION_DOT":4.85e-6,"MEAN_MOTION_DDOT":0},{"OBJECT_NAME":"SL-14 R/B","OBJECT_ID":"1989-080C","EPOCH":"2026-04-02T11:32:50.292096","MEAN_MOTION":12.50516702,"ECCENTRICITY":0.12308931,"INCLINATION":82.5948,"RA_OF_ASC_NODE":157.9198,"ARG_OF_PERICENTER":130.3962,"MEAN_ANOMALY":241.1316,"EPHEMERIS_TYPE":0,"CLASSIFICATION_TYPE":"U","NORAD_CAT_ID":20262,"ELEMENT_SET_NO":999,"REV_AT_EPOCH":66312,"BSTAR":0.00014912295,"MEAN_MOTION_DOT":5.25e-6,"MEAN_MOTION_DDOT":0},{"OBJECT_NAME":"DELTA 1 R/B","OBJECT_ID":"1989-089B","EPOCH":"2026-04-02T19:56:50.031168","MEAN_MOTION":14.50684221,"ECCENTRICITY":0.0070238,"INCLINATION":97.0686,"RA_OF_ASC_NODE":296.4264,"ARG_OF_PERICENTER":47.1658,"MEAN_ANOMALY":313.5413,"EPHEMERIS_TYPE":0,"CLASSIFICATION_TYPE":"U","NORAD_CAT_ID":20323,"ELEMENT_SET_NO":999,"REV_AT_EPOCH":89923,"BSTAR":0.00013997,"MEAN_MOTION_DOT":5.32e-6,"MEAN_MOTION_DDOT":0},{"OBJECT_NAME":"ARIANE 40 R/B","OBJECT_ID":"1990-005H","EPOCH":"2026-04-02T10:34:09.094656","MEAN_MOTION":14.39886765,"ECCENTRICITY":0.00111851,"INCLINATION":98.3034,"RA_OF_ASC_NODE":152.3883,"ARG_OF_PERICENTER":129.8458,"MEAN_ANOMALY":230.3717,"EPHEMERIS_TYPE":0,"CLASSIFICATION_TYPE":"U","NORAD_CAT_ID":20443,"ELEMENT_SET_NO":999,"REV_AT_EPOCH":89622,"BSTAR":0.00014072581,"MEAN_MOTION_DOT":4.0e-6,"MEAN_MOTION_DDOT":0},{"OBJECT_NAME":"DELTA 2 R/B(1)","OBJECT_ID":"1990-008B","EPOCH":"2026-04-02T20:38:18.651840","MEAN_MOTION":15.59341362,"ECCENTRICITY":0.0076558,"INCLINATION":35.6043,"RA_OF_ASC_NODE":15.8498,"ARG_OF_PERICENTER":126.0755,"MEAN_ANOMALY":234.7102,"EPHEMERIS_TYPE":0,"CLASSIFICATION_TYPE":"U","NORAD_CAT_ID":20453,"ELEMENT_SET_NO":999,"REV_AT_EPOCH":92990,"BSTAR":0.0011929,"MEAN_MOTION_DOT":0.00113516,"MEAN_MOTION_DDOT":0},{"OBJECT_NAME":"COSMOS 2058","OBJECT_ID":"1990-010A","EPOCH":"2026-04-02T21:05:38.513472","MEAN_MOTION":15.1156316,"ECCENTRICITY":0.0007819,"INCLINATION":82.4722,"RA_OF_ASC_NODE":23.5939,"ARG_OF_PERICENTER":245.0098,"MEAN_ANOMALY":115.0321,"EPHEMERIS_TYPE":0,"CLASSIFICATION_TYPE":"U","NORAD_CAT_ID":20465,"ELEMENT_SET_NO":999,"REV_AT_EPOCH":94589,"BSTAR":0.00047959,"MEAN_MOTION_DOT":8.167e-5,"MEAN_MOTION_DDOT":0},{"OBJECT_NAME":"SL-14 R/B","OBJECT_ID":"1990-010B","EPOCH":"2026-04-02T10:16:15.212640","MEAN_MOTION":14.83593072,"ECCENTRICITY":0.00188839,"INCLINATION":82.5003,"RA_OF_ASC_NODE":245.0847,"ARG_OF_PERICENTER":218.3577,"MEAN_ANOMALY":141.6297,"EPHEMERIS_TYPE":0,"CLASSIFICATION_TYPE":"U","NORAD_CAT_ID":20466,"ELEMENT_SET_NO":999,"REV_AT_EPOCH":93200,"BSTAR":9.0026844e-5,"MEAN_MOTION_DOT":7.67e-6,"MEAN_MOTION_DDOT":0},{"OBJECT_NAME":"SL-14 R/B","OBJECT_ID":"1990-018B","EPOCH":"2026-04-02T12:51:54.769248","MEAN_MOTION":14.8216907,"ECCENTRICITY":0.00165782,"INCLINATION":82.5241,"RA_OF_ASC_NODE":200.8062,"ARG_OF_PERICENTER":18.5495,"MEAN_ANOMALY":341.632,"EPHEMERIS_TYPE":0,"CLASSIFICATION_TYPE":"U","NORAD_CAT_ID":20511,"ELEMENT_SET_NO":999,"REV_AT_EPOCH":92611,"BSTAR":6.6144447e-5,"MEAN_MOTION_DOT":5.51e-6,"MEAN_MOTION_DDOT":0},{"OBJECT_NAME":"HST","OBJECT_ID":"1990-037B","EPOCH":"2026-04-02T16:34:45.475104","MEAN_MOTION":15.29872856,"ECCENTRICITY":0.0002065,"INCLINATION":28.4721,"RA_OF_ASC_NODE":236.2244,"ARG_OF_PERICENTER":42.6057,"MEAN_ANOMALY":317.4699,"EPHEMERIS_TYPE":0,"CLASSIFICATION_TYPE":"U","NORAD_CAT_ID":20580,"ELEMENT_SET_NO":999,"REV_AT_EPOCH":77699,"BSTAR":0.00032385,"MEAN_MOTION_DOT":9.88e-5,"MEAN_MOTION_DDOT":0},{"OBJECT_NAME":"SL-16 R/B","OBJECT_ID":"1990-046B","EPOCH":"2026-04-02T20:58:14.432160","MEAN_MOTION":14.15018919,"ECCENTRICITY":0.0016511,"INCLINATION":70.9985,"RA_OF_ASC_NODE":247.118,"ARG_OF_PERICENTER":268.1995,"MEAN_ANOMALY":91.7236,"EPHEMERIS_TYPE":0,"CLASSIFICATION_TYPE":"U","NORAD_CAT_ID":20625,"ELEMENT_SET_NO":999,"REV_AT_EPOCH":85181,"BSTAR":6.8918e-5,"MEAN_MOTION_DOT":8.6e-7,"MEAN_MOTION_DDOT":0},{"OBJECT_NAME":"COSMOS 2084","OBJECT_ID":"1990-055A","EPOCH":"2026-04-02T19:54:14.581152","MEAN_MOTION":15.05798691,"ECCENTRICITY":0.0013199,"INCLINATION":62.7895,"RA_OF_ASC_NODE":253.2346,"ARG_OF_PERICENTER":198.1971,"MEAN_ANOMALY":161.8659,"EPHEMERIS_TYPE":0,"CLASSIFICATION_TYPE":"U","NORAD_CAT_ID":20663,"ELEMENT_SET_NO":999,"REV_AT_EPOCH":93995,"BSTAR":0.00035672,"MEAN_MOTION_DOT":5.008e-5,"MEAN_MOTION_DDOT":0},{"OBJECT_NAME":"SL-6 R/B(2)","OBJECT_ID":"1990-055D","EPOCH":"2026-04-02T13:53:56.211648","MEAN_MOTION":15.03712496,"ECCENTRICITY":0.00287203,"INCLINATION":62.7832,"RA_OF_ASC_NODE":172.604,"ARG_OF_PERICENTER":352.3834,"MEAN_ANOMALY":7.6824,"EPHEMERIS_TYPE":0,"CLASSIFICATION_TYPE":"U","NORAD_CAT_ID":20666,"ELEMENT_SET_NO":999,"REV_AT_EPOCH":94178,"BSTAR":0.00018365885,"MEAN_MOTION_DOT":2.349e-5,"MEAN_MOTION_DDOT":0},{"OBJECT_NAME":"SL-8 R/B","OBJECT_ID":"1990-078B","EPOCH":"2026-04-02T15:01:18.640416","MEAN_MOTION":14.89767621,"ECCENTRICITY":0.0357706,"INCLINATION":82.9037,"RA_OF_ASC_NODE":229.7685,"ARG_OF_PERICENTER":293.223,"MEAN_ANOMALY":63.1696,"EPHEMERIS_TYPE":0,"CLASSIFICATION_TYPE":"U","NORAD_CAT_ID":20775,"ELEMENT_SET_NO":999,"REV_AT_EPOCH":81286,"BSTAR":0.00043463338,"MEAN_MOTION_DOT":0.00014661,"MEAN_MOTION_DDOT":0}]
